{
    "links": {
        "self": "http://www.neowsapp.com/rest/v1/neo/3989256?api_key=iIulBulltgU6a56xZRHN4H3l9WmuAYTsLGpBGhQ2"
    },
    "id": "3989256",
    "neo_reference_id": "3989256",
    "name": "(2020 BG11)",
    "designation": "2020 BG11",
    "nasa_jpl_url": "http://ssd.jpl.nasa.gov/sbdb.cgi?sstr=3989256",
    "absolute_magnitude_h": 26.355,
    "estimated_diameter": {
        "kilometers": {
            "estimated_diameter_min": 0.0142414752,
            "estimated_diameter_max": 0.0318449066
        },
        "meters": {
            "estimated_diameter_min": 14.2414751567,
            "estimated_diameter_max": 31.8449065503
        },
        "miles": {
            "estimated_diameter_min": 0.0088492397,
            "estimated_diameter_max": 0.0197875014
        },
        "feet": {
            "estimated_diameter_min": 46.7240013531,
            "estimated_diameter_max": 104.4780432064
        }
    },
    "is_potentially_hazardous_asteroid": false,
    "close_approach_data": [
        {
            "close_approach_date": "2020-01-18",
            "close_approach_date_full": "2020-Jan-18 04:26",
            "epoch_date_close_approach": 1579321560000,
            "relative_velocity": {
                "kilometers_per_second": "9.5685882938",
                "kilometers_per_hour": "34446.9178578117",
                "miles_per_hour": "21403.975154483"
            },
            "miss_distance": {
                "astronomical": "0.04382122",
                "lunar": "17.04645458",
                "kilometers": "6555561.1728014",
                "miles": "4073436.82500332"
            },
            "orbiting_body": "Earth"
        }
    ],
    "orbital_data": {
        "orbit_id": "1",
        "orbit_determination_date": "2020-01-29 08:34:06",
        "first_observation_date": "2020-01-19",
        "last_observation_date": "2020-01-29",
        "data_arc_in_days": 10,
        "observations_used": 17,
        "orbit_uncertainty": "8",
        "minimum_orbit_intersection": ".0372595",
        "jupiter_tisserand_invariant": "4.065",
        "epoch_osculation": "2458871.5",
        "eccentricity": ".4563979776358736",
        "semi_major_axis": "1.706323614614066",
        "inclination": "5.035720388664022",
        "ascending_node_longitude": "137.5508012031121",
        "orbital_period": "814.1239455858544",
        "perihelion_distance": ".9275609677118726",
        "perihelion_argument": "297.4536794538477",
        "aphelion_distance": "2.485086261516259",
        "perihelion_time": "2458834.223569036572",
        "mean_anomaly": "16.48338096378829",
        "mean_motion": ".4421931107074111",
        "equinox": "J2000",
        "orbit_class": {
            "orbit_class_type": "APO",
            "orbit_class_description": "Near-Earth asteroid orbits which cross the Earth’s orbit similar to that of 1862 Apollo",
            "orbit_class_range": "a (semi-major axis) > 1.0 AU; q (perihelion) < 1.017 AU"
        }
    },
    "is_sentry_object": false
}